[Satellite]
VERSION=1.1
NAME=IRIDIUM 51 [-]
NICKNAME=IRIDIUM 51 [-]
TLE1=1 25262U 98018A   20157.79555472  .00000977  00000-0  65927-4 0  9998
TLE2=2 25262  86.4012 190.4430 0207521  77.6533 284.7837 14.89037227171437
STATUS=2
